{"fetched_at":"2026-07-21T07:06:38.133Z","source":"https://celestrak.org/NORAD/elements/gp.php?GROUP=stations&FORMAT=JSON","constellation":"tiangong","records":[{"OBJECT_NAME":"CSS (TIANHE)","OBJECT_ID":"2021-035A","EPOCH":"2026-07-20T18:59:18.074688","CLASSIFICATION_TYPE":"U","MEAN_MOTION":15.58223807,"ECCENTRICITY":0.0001779,"INCLINATION":41.4681,"RA_OF_ASC_NODE":117.912,"ARG_OF_PERICENTER":306.1068,"MEAN_ANOMALY":53.9605,"EPHEMERIS_TYPE":0,"NORAD_CAT_ID":48274,"ELEMENT_SET_NO":999,"REV_AT_EPOCH":29841,"BSTAR":0.00013855012,"MEAN_MOTION_DOT":0.00010456,"MEAN_MOTION_DDOT":0}]}
