CSS (TIANHE)            
1 48274U 21035A   26201.79118142  .00010456  00000+0  13855-3 0  9990
2 48274  41.4681 117.9120 0001779 306.1068  53.9605 15.58223807298413
